[{"OBJECT_NAME":"STARLINK-30488","OBJECT_ID":"2023-147U","EPOCH":"2026-03-09T02:48:31.979520","MEAN_MOTION":15.02537293,"ECCENTRICITY":9.673e-5,"INCLINATION":43.0042,"RA_OF_ASC_NODE":329.0116,"ARG_OF_PERICENTER":275.0886,"MEAN_ANOMALY":84.9846,"EPHEMERIS_TYPE":0,"CLASSIFICATION_TYPE":"U","NORAD_CAT_ID":57931,"ELEMENT_SET_NO":999,"REV_AT_EPOCH":13653,"BSTAR":-1.4490491e-5,"MEAN_MOTION_DOT":-3.99e-6,"MEAN_MOTION_DDOT":0},{"OBJECT_NAME":"PSLV DEB","OBJECT_ID":"2001-049CY","EPOCH":"2026-03-09T18:20:37.296384","MEAN_MOTION":15.08389698,"ECCENTRICITY":0.00190632,"INCLINATION":97.9861,"RA_OF_ASC_NODE":156.2845,"ARG_OF_PERICENTER":340.3269,"MEAN_ANOMALY":19.722,"EPHEMERIS_TYPE":0,"CLASSIFICATION_TYPE":"U","NORAD_CAT_ID":27152,"ELEMENT_SET_NO":999,"REV_AT_EPOCH":30598,"BSTAR":0.00053695108,"MEAN_MOTION_DOT":8.318e-5,"MEAN_MOTION_DDOT":0}]
